{
  "norad_id": 62262,
  "name": "STARLINK-32632",
  "history": [
    {
      "epoch": "2026-03-28T09:55:15.923136",
      "apogee_km": 475.9745789071985,
      "perigee_km": 474.4750633407375,
      "latitude_deg": 17.63801246180809,
      "longitude_deg": 85.88435904006474,
      "semi_major_axis_km": 6853.361821123968,
      "eccentricity": 0.0001094,
      "inclination_deg": 53.1587,
      "raan_deg": 132.7579,
      "arg_perigee_deg": 81.2291,
      "mean_anomaly_deg": 278.8834,
      "mean_motion_rev_day": 15.30196734
    }
  ]
}