{"fetched_at":"2026-03-29T02:12:04Z","count":15717,"tles":[{"name":"STARLINK-32632","line1":"1 62262U 24231V   26087.41337874  .00020444  00000+0  70056-3 0  9994","line2":"2 62262  53.1587 132.7579 0001094  81.2291 278.8834 15.30196734 74639","category":"Starlink"}]}